[{"OBJECT_NAME":"HEAD-1","OBJECT_ID":"2017-072B","EPOCH":"2026-03-10T00:09:55.710720","MEAN_MOTION":14.28734947,"ECCENTRICITY":0.0011073,"INCLINATION":98.9629,"RA_OF_ASC_NODE":84.8369,"ARG_OF_PERICENTER":82.9382,"MEAN_ANOMALY":277.3057,"EPHEMERIS_TYPE":0,"CLASSIFICATION_TYPE":"U","NORAD_CAT_ID":43011,"ELEMENT_SET_NO":999,"REV_AT_EPOCH":43319,"BSTAR":0.00021004086,"MEAN_MOTION_DOT":4.82e-6,"MEAN_MOTION_DDOT":0},{"OBJECT_NAME":"CZ-6A DEB","OBJECT_ID":"2024-140MK","EPOCH":"2026-03-09T14:05:40.674048","MEAN_MOTION":14.42373853,"ECCENTRICITY":0.0061437,"INCLINATION":88.9274,"RA_OF_ASC_NODE":278.7768,"ARG_OF_PERICENTER":233.1914,"MEAN_ANOMALY":126.3643,"EPHEMERIS_TYPE":0,"CLASSIFICATION_TYPE":"U","NORAD_CAT_ID":60984,"ELEMENT_SET_NO":999,"REV_AT_EPOCH":8132,"BSTAR":0.00019576,"MEAN_MOTION_DOT":6.77e-6,"MEAN_MOTION_DDOT":0}]
